NORAD_CAT_ID,OBJECT_NAME,OBJECT_TYPE,EPOCH,MEAN_MOTION,ECCENTRICITY,INCLINATION,RA_OF_ASC_NODE,ARG_OF_PERICENTER,MEAN_ANOMALY,BSTAR,MEAN_MOTION_DOT,MEAN_MOTION_DDOT,TLE_LINE0,TLE_LINE1,TLE_LINE2,SEMIMAJOR_AXIS,PERIOD,APOGEE,PERIGEE,DECAYED
52534.0,STARLINK-3952,PAYLOAD,2023-07-27 09:44:26,15.08827548,0.0001123,53.2166,102.0451,81.9958,278.1161,-6.6119e-05,-1.34e-05,0.0,0 STARLINK-3952,1 52534U 22051B   23208.40586206 -.00001340  00000-0 -66119-4 0  9992,2 52534  53.2166 102.0451 0001123  81.9958 278.1161 15.08827548 67146,6917.918,95.438,540.56,539.007,0.0
52534.0,STARLINK-3952,PAYLOAD,2023-07-27 16:05:59,15.08819126,0.000144,53.2177,100.8587,95.5505,264.5651,-7.2196e-05,-1.436e-05,0.0,0 STARLINK-3952,1 52534U 22051B   23208.67083090 -.00001436  00000-0 -72196-4 0  9992,2 52534  53.2177 100.8587 0001440  95.5505 264.5651 15.08819126 67185,6917.944,95.439,540.805,538.813,0.0
52534.0,STARLINK-3952,PAYLOAD,2023-07-28 01:38:18,15.08822445,0.0001144,53.2175,99.0742,100.0437,260.0684,-0.00012142,-2.219e-05,0.0,0 STARLINK-3952,1 52534U 22051B   23209.06827425 -.00002219  00000-0 -12142-3 0  9998,2 52534  53.2175  99.0742 0001144 100.0437 260.0684 15.08822445 67918,6917.934,95.439,540.59,539.008,0.0
52534.0,STARLINK-3952,PAYLOAD,2023-07-28 23:53:41,15.08846595,0.0001135,53.2174,94.9113,98.956,261.156,2.9703e-05,1.85e-06,0.0,0 STARLINK-3952,1 52534U 22051B   23209.99562164  .00000185  00000-0  29703-4 0  9996,2 52534  53.2174  94.9113 0001135  98.9560 261.1560 15.08846595 67383,6917.86,95.437,540.51,538.94,0.0
52534.0,STARLINK-3952,PAYLOAD,2023-07-29 23:44:28,15.08857768,0.0001068,53.2168,90.4503,103.9741,256.137,0.00056231,8.677e-05,0.0,0 STARLINK-3952,1 52534U 22051B   23210.98921898  .00008677  00000-0  56231-3 0  9999,2 52534  53.2168  90.4503 0001068 103.9741 256.1370 15.08857768 67537,6917.826,95.436,540.43,538.952,0.0
52534.0,STARLINK-3952,PAYLOAD,2023-07-30 15:38:19,15.08852858,0.0001132,53.2166,87.478,106.664,253.4476,0.00012881,1.763e-05,0.0,0 STARLINK-3952,1 52534U 22051B   23211.65161784  .00001763  00000-0  12881-3 0  9996,2 52534  53.2166  87.4780 0001132 106.6640 253.4476 15.08852858 67631,6917.841,95.437,540.489,538.923,0.0
52534.0,STARLINK-3952,PAYLOAD,2023-07-31 09:07:34,15.08847865,0.0001163,53.2161,84.2071,65.8188,294.2926,0.00011962,1.617e-05,0.0,0 STARLINK-3952,1 52534U 22051B   23212.38025844  .00001617  00000-0  11962-3 0  9990,2 52534  53.2161  84.2071 0001163  65.8188 294.2926 15.08847865 67748,6917.856,95.437,540.526,538.917,0.0
52534.0,STARLINK-3952,PAYLOAD,2023-07-31 18:39:53,15.08840691,0.0001026,53.216,82.4213,83.3175,276.7934,-5.3626e-06,-3.73e-06,0.0,0 STARLINK-3952,1 52534U 22051B   23212.77770016 -.00000373  00000-0 -53626-5 0  9996,2 52534  53.2160  82.4213 0001026  83.3175 276.7934 15.08840691 67805,6917.878,95.438,540.453,539.034,0.0
52534.0,STARLINK-3952,PAYLOAD,2023-08-01 18:30:39,15.08856897,0.0001007,53.216,77.9609,82.1809,277.9297,0.00032831,4.943e-05,0.0,0 STARLINK-3952,1 52534U 22051B   23213.77129038  .00004943  00000-0  32831-3 0  9997,2 52534  53.2160  77.9609 0001007  82.1809 277.9297 15.08856897 67959,6917.829,95.436,540.39,538.997,0.0
52534.0,STARLINK-3952,PAYLOAD,2023-08-02 00:52:11,15.08867187,0.0001053,53.2159,76.771,83.2684,276.8428,0.0005281,8.133e-05,0.0,0 STARLINK-3952,1 52534U 22051B   23214.03624538  .00008133  00000-0  52810-3 0  9996,2 52534  53.2159  76.7710 0001053  83.2684 276.8428 15.08867187 67993,6917.797,95.436,540.391,538.934,0.0
52534.0,STARLINK-3952,PAYLOAD,2023-08-02 18:21:26,15.08846425,0.0001651,53.2162,73.4933,124.2232,235.8917,6.052e-05,6.75e-06,0.0,0 STARLINK-3952,1 52534U 22051B   23214.76489192  .00000675  00000-0  60520-4 0  9992,2 52534  53.2162  73.4933 0001651 124.2232 235.8917 15.08846425 68101,6917.861,95.437,540.868,538.584,0.0
52534.0,STARLINK-3952,PAYLOAD,2023-08-03 18:12:14,15.0882922,0.0001097,53.216,69.0385,84.9668,275.145,-0.00010256,-1.919e-05,0.0,0 STARLINK-3952,1 52534U 22051B   23215.75849678 -.00001919  00000-0 -10256-3 0  9995,2 52534  53.2160  69.0385 0001097  84.9668 275.1450 15.08829220 68259,6917.913,95.438,540.537,539.019,0.0
52534.0,STARLINK-3952,PAYLOAD,2023-08-04 18:03:01,15.08840873,0.0001074,53.2157,64.5805,111.8127,248.298,8.0672e-05,9.96e-06,0.0,0 STARLINK-3952,1 52534U 22051B   23216.75210079  .00000996  00000-0  80672-4 0  9995,2 52534  53.2157  64.5805 0001074 111.8127 248.2980 15.08840873 68400,6917.878,95.437,540.486,539.0,0.0
52534.0,STARLINK-3952,PAYLOAD,2023-08-05 21:04:34,15.08857015,9.96e-05,53.2159,59.5251,79.199,280.9114,0.00049921,7.67e-05,0.0,0 STARLINK-3952,1 52534U 22051B   23217.87817774  .00007670  00000-0  49921-3 0  9991,2 52534  53.2159  59.5251 0000996  79.1990 280.9114 15.08857015 68573,6917.828,95.436,540.382,539.004,0.0
52534.0,STARLINK-3952,PAYLOAD,2023-08-06 08:12:17,15.08836262,0.0001375,53.2154,57.4448,64.1623,295.9511,-0.0001003,-1.884e-05,0.0,0 STARLINK-3952,1 52534U 22051B   23218.34186408 -.00001884  00000-0 -10030-3 0  9999,2 52534  53.2154  57.4448 0001375  64.1623 295.9511 15.08836262 68648,6917.892,95.438,540.708,538.806,0.0
52534.0,STARLINK-3952,PAYLOAD,2023-08-06 19:19:59,15.08823839,0.0001024,53.2161,55.3615,70.9386,289.1717,-0.00019352,-3.365e-05,0.0,0 STARLINK-3952,1 52534U 22051B   23218.80555409 -.00003365  00000-0 -19352-3 0  9993,2 52534  53.2161  55.3615 0001024  70.9386 289.1717 15.08823839 68718,6917.93,95.439,540.503,539.086,0.0
52534.0,STARLINK-3952,PAYLOAD,2023-08-07 19:10:47,15.0884472,0.0001026,53.2162,50.9006,63.8777,296.2321,0.0012416,0.0001953,0.0,0 STARLINK-3952,1 52534U 22051B   23219.79916382  .00019530  00000-0  12416-2 0  9995,2 52534  53.2162  50.9006 0001026  63.8777 296.2321 15.08844720 68869,6917.866,95.437,540.441,539.021,0.0
52534.0,STARLINK-3952,PAYLOAD,2023-08-08 22:12:19,15.08884052,0.0001054,53.2167,45.8454,60.159,299.9507,0.0012636,0.00019904,0.0,0 STARLINK-3952,1 52534U 22051B   23220.92522666  .00019904  00000-0  12636-2 0  9999,2 52534  53.2167  45.8454 0001054  60.1590 299.9507 15.08884052 69036,6917.746,95.435,540.34,538.882,0.0
52534.0,STARLINK-3952,PAYLOAD,2023-08-09 18:52:20,15.08848085,8.83e-05,53.2169,41.9798,73.246,286.8629,7.3851e-05,8.88e-06,0.0,0 STARLINK-3952,1 52534U 22051B   23221.78634612  .00000888  00000-0  73851-4 0  9998,2 52534  53.2169  41.9798 0000883  73.2460 286.8629 15.08848085 69166,6917.856,95.437,540.332,539.11,0.0
52534.0,STARLINK-3952,PAYLOAD,2023-08-10 18:43:07,15.08841735,9.2e-05,53.217,37.5192,77.2951,282.8144,0.00030818,4.621e-05,0.0,0 STARLINK-3952,1 52534U 22051B   23222.77994909  .00004621  00000-0  30818-3 0  9990,2 52534  53.2170  37.5192 0000920  77.2951 282.8144 15.08841735 69318,6917.875,95.437,540.377,539.104,0.0
52534.0,STARLINK-3952,PAYLOAD,2023-08-11 18:33:54,15.08844906,9.35e-05,53.2169,33.0593,80.3465,279.7633,0.0001838,2.639e-05,0.0,0 STARLINK-3952,1 52534U 22051B   23223.77354714  .00002639  00000-0  18380-3 0  9992,2 52534  53.2169  33.0593 0000935  80.3465 279.7633 15.08844906 69460,6917.865,95.437,540.377,539.084,0.0
52534.0,STARLINK-3952,PAYLOAD,2023-08-12 10:27:46,15.08818593,0.0001055,53.2168,30.0864,84.8682,275.2431,0.00054862,8.449e-05,0.0,0 STARLINK-3952,1 52534U 22051B   23224.43595840  .00008449  00000-0  54862-3 0  9993,2 52534  53.2168  30.0864 0001055  84.8682 275.2431 15.08818593 69562,6917.946,95.439,540.541,539.081,0.0
52534.0,STARLINK-3952,PAYLOAD,2023-08-12 20:00:04,15.08841365,0.0001252,53.2173,28.3006,94.3215,265.792,5.7089e-05,6.21e-06,0.0,0 STARLINK-3952,1 52534U 22051B   23224.83338961  .00000621  00000-0  57089-4 0  9995,2 52534  53.2173  28.3006 0001252  94.3215 265.7920 15.08841365 69620,6917.876,95.437,540.607,538.875,0.0
52534.0,STARLINK-3952,PAYLOAD,2023-08-13 10:18:33,15.08838369,0.0001096,53.2169,25.6246,95.1735,264.9383,7.5786e-05,9.18e-06,0.0,0 STARLINK-3952,1 52534U 22051B   23225.42955486  .00000918  00000-0  75786-4 0  9991,2 52534  53.2169  25.6246 0001096  95.1735 264.9383 15.08838369 69717,6917.885,95.438,540.509,538.992,0.0
52534.0,STARLINK-3952,PAYLOAD,2023-08-14 16:30:53,15.08839578,8.45e-05,53.2181,19.975,87.2133,272.8956,0.00014475,2.017e-05,0.0,0 STARLINK-3952,1 52534U 22051B   23226.68811391  .00002017  00000-0  14475-3 0  9995,2 52534  53.2181  19.9750 0000845  87.2133 272.8956 15.08839578 69900,6917.882,95.438,540.331,539.162,0.0
52534.0,STARLINK-3952,PAYLOAD,2023-08-16 03:29:21,15.08843737,9.03e-05,53.2188,13.4315,91.7068,268.4027,8.9829e-05,1.142e-05,0.0,0 STARLINK-3952,1 52534U 22051B   23228.14539094  .00001142  00000-0  89829-4 0  9999,2 52534  53.2188  13.4315 0000903  91.7068 268.4027 15.08843737 70123,6917.869,95.437,540.359,539.109,0.0
52534.0,STARLINK-3952,PAYLOAD,2023-08-16 13:01:41,15.08814514,8.62e-05,53.2186,11.6474,105.4849,254.6239,0.00034637,5.225e-05,0.0,0 STARLINK-3952,1 52534U 22051B   23228.54284521  .00005225  00000-0  34637-3 0  9997,2 52534  53.2186  11.6474 0000862 105.4849 254.6239 15.08814514 70180,6917.958,95.439,540.42,539.227,0.0
52534.0,STARLINK-3952,PAYLOAD,2023-08-16 19:23:13,15.08842129,0.0001419,53.2179,10.4575,97.1591,262.9563,5.7388e-05,6.26e-06,0.0,0 STARLINK-3952,1 52534U 22051B   23228.80779455  .00000626  00000-0  57388-4 0  9990,2 52534  53.2179  10.4575 0001419  97.1591 262.9563 15.08842129 70221,6917.874,95.437,540.721,538.757,0.0
52534.0,STARLINK-3952,PAYLOAD,2023-08-18 01:35:33,15.0883873,9.08e-05,53.2204,4.8085,79.7365,280.3729,7.5581e-05,9.15e-06,0.0,0 STARLINK-3952,1 52534U 22051B   23230.06635481  .00000915  00000-0  75581-4 0  9997,2 52534  53.2204   4.8085 0000908  79.7365 280.3729 15.08838730 70412,6917.884,95.438,540.377,539.121,0.0
52534.0,STARLINK-3952,PAYLOAD,2023-08-18 09:32:29,15.08827833,0.0002072,53.2148,3.3213,90.0346,270.0884,-3.7926e-06,-3.49e-06,0.0,0 STARLINK-3952,1 52534U 22051B   23230.39756932 -.00000349  00000-0 -37926-5 0  9993,2 52534  53.2148   3.3213 0002072  90.0346 270.0884 15.08827833 70460,6917.918,95.438,541.216,538.349,0.0
